C/2019 A9 (PANSTARRS),e,84.1897,278.3851,237.9594,39.76182,0.0039310,0.96401815,2.1758,01/30.0/2021,2000,g 15.0,4.0
# From MPC114606
C/2019 B1 (Africano),e,123.3637,290.4353,174.8448,146.0066,0.0005587,0.98906444,0.0000,03/19.7530/2019,2000,g 16.0,4.0
# From MPC115885
P/2019 B2 (Groeller),e,16.8414,176.2690,359.3113,3.864616,0.1297312,0.37321657,77.9331,01/30.0/2021,2000,g 14.5,4.0
# From MPC115885
C/2019 B3 (PANSTARRS),h,01/19.9923/2021,66.5388,358.4304,263.9039,1.002443,6.823631,2000,5.5,4.0
# From MPEC 2020-AA5
C/2019 C1,e,36.0251,212.3884,319.1900,751.4720,0.0000478,0.99124238,0.0000,05/05.6140/2020,2000,g 10.0,4.0
# From MPC118842
C/2019 D1 (Flewelling),e,34.0804,231.7164,70.5245,141.4975,0.0005856,0.98884196,0.0000,05/11.8782/2019,2000,g 13.0,4.0
# From MPC119997
C/2019 E3 (ATLAS),h,11/12.5885/2023,84.2923,347.2422,280.6120,1.003917,10.314901,2000,2.5,4.0
# From MPC119997
C/2019 F1 (ATLAS-Africano),h,06/22.7884/2021,54.1754,38.7260,251.1201,1.003678,3.595635,2000,5.5,4.0
# From MPC119997
C/2019 F2 (ATLAS),e,19.2011,175.6887,11.3028,16.73002,0.0144032,0.86624568,7.3286,01/30.0/2021,2000,g 12.0,4.0
# From MPEC 2020-AA5
A/2019 G2,e,159.2075,208.1511,82.6344,665.5896,0.0000574,0.99655814,0.0000,12/09.9929/2019,2000,g 16.5,2.0
# From MPC118094
A/2019 G4,h,09/16.0374/2018,138.3866,130.4642,287.8837,1.001542,5.858341,2000,13.0,2.0
# From MPC114607
P/2019 GG21 (PANSTARRS),e,6.0839,340.5778,208.5107,7.473375,0.0482424,0.47297715,30.3988,01/30.0/2021,2000,g 12.0,4.0
# From MPC115885
C/2019 H1 (NEOWISE),e,104.5705,269.1959,19.3224,235.1973,0.0002732,0.99215173,0.0000,04/27.8031/2019,2000,g 15.5,4.0
# From MPC118842
C/2019 J1 (Lemmon),e,24.5505,98.0910,167.7868,69.70019,0.0016938,0.96442478,1.1210,01/30.0/2021,2000,g 12.0,4.0
# From MPC115885
C/2019 J2 (Palomar),e,105.1523,25.4803,98.7154,675.0770,0.0000562,0.99744137,0.0000,07/19.7039/2019,2000,g 13.0,4.0
# From MPC117071
C/2019 J3 (ATLAS),h,08/01.9585/2019,131.4116,270.5258,16.5840,1.000257,2.374294,2000,13.5,4.0
# From MPC117071
C/2019 JU6 (ATLAS),e,148.3043,21.7435,94.9058,338.2114,0.0001585,0.99395069,0.0000,05/31.8965/2019,2000,g 14.5,4.0
# From MPC119997
C/2019 K1 (ATLAS),h,02/12.9866/2020,87.1418,73.3774,265.7128,1.000032,2.012667,2000,10.0,4.0
# From MPC119997
C/2019 K4 (Ye),e,105.3019,180.1623,139.7736,1524,0.0000166,0.99851670,0.0000,06/16.3010/2019,2000,g 12.5,4.0
# From MPC119997
C/2019 K5 (Young),e,15.3152,177.1610,174.9709,157.8382,0.0004970,0.98710397,0.0000,06/22.8695/2019,2000,g 13.0,4.0
# From MPC117071
A/2019 K6,e,132.3781,42.9439,187.6305,1697,0.0000141,0.99768519,0.0000,05/20.2485/2020,2000,g 13.6,2.0
# From MPC118095
C/2019 K7 (Smith),e,103.5399,307.9297,27.3112,34615,0.0000002,0.99987072,0.0000,06/16.9920/2020,2000,g  6.2,4.0
# From MPC119997
C/2019 K8 (ATLAS),e,93.2208,291.0451,85.3727,2324,0.0000088,0.99862528,0.0000,07/21.3885/2019,2000,g 11.5,4.0
# From MPC118095
C/2019 L1 (PANSTARRS),e,9.9926,254.4126,49.9570,9.836071,0.0319501,0.70604644,17.1774,01/30.0/2021,2000,g 13.5,4.0
# From MPC115886
C/2019 L2 (NEOWISE),e,152.1831,12.5799,18.7462,24.85006,0.0079563,0.93479222,5.3245,01/30.0/2021,2000,g 16.0,4.0
# From MPC119997
C/2019 L3 (ATLAS),h,01/09.6800/2022,48.3660,290.7858,171.6319,1.001027,3.554050,2000,4.5,4.0
# From MPC118095
C/2019 LB7 (Kleyna),e,164.2910,3.8917,336.4859,34.80359,0.0048003,0.92863851,3.2404,01/30.0/2021,2000,g 17.0,4.0
# From MPC118843
P/2019 M2 (ATLAS),e,12.2821,307.5963,332.5675,3.026700,0.1871759,0.64832987,109.9385,01/30.0/2021,2000,g 21.2,4.0
# From MPC118095
C/2019 M3 (ATLAS),h,01/02.6770/2019,99.4662,154.9013,87.9274,1.001222,2.418894,2000,12.2,4.0
# From MPC119997
C/2019 N1 (ATLAS),e,82.4278,13.5731,193.4474,27402,0.0000002,0.99993779,0.0000,12/01.7909/2020,2000,g  7.5,4.0
# From MPEC 2020-AA5
A/2019 O2,e,93.2866,48.3151,129.6842,57.36110,0.0022687,0.83122969,358.1894,01/30.0/2021,2000,g  9.5,2.0
# From MPC118843
A/2019 O3,h,03/08.1436/2021,89.8126,300.3793,60.0620,1.002252,8.818441,2000,10.0,2.0
# From MPC117072
A/2019 O4,e,115.0865,354.9172,61.8314,32.86097,0.0052322,0.88908091,1.8572,01/30.0/2021,2000,g 15.5,2.0
# From MPEC 2020-AA5
A/2019 Q1,h,07/20.1751/2020,155.7233,42.3648,56.0036,1.001028,4.997069,2000,12.5,2.0
# From MPC117072
A/2019 Q2,e,159.0203,188.0401,176.2952,57.25060,0.0022753,0.97804640,0.0000,07/22.2828/2019,2000,g 18.0,2.0
# From MPC117072
C/2019 Q3 (PANSTARRS),h,08/21.3658/2018,65.5269,151.3236,152.6871,1.004083,7.253724,2000,8.5,4.0
# From MPC117072
P/2019 S2 (PANSTARRS),e,10.4729,93.1302,216.8707,4.736382,0.0956167,0.20677895,67.7323,01/30.0/2021,2000,g 13.5,4.0
# From MPC118096
P/2019 S3 (PANSTARRS),e,8.6937,150.1603,212.9814,3.414759,0.1561939,0.47093935,81.6556,01/30.0/2021,2000,g 18.3,4.0
# From MPEC 2020-AA5
A/2019 S4,e,92.0243,63.1635,71.3651,233.3840,0.0002764,0.98525241,0.0000,04/07.9699/2020,2000,g 14.5,2.0
# From MPC118843
A/2019 T1,e,120.8697,6.9538,91.0319,38.25326,0.0041658,0.88807257,0.0655,01/30.0/2021,2000,g 13.0,2.0
# From MPEC 2020-AA5
A/2019 T2,e,111.4858,155.6421,239.3864,2245,0.0000093,0.99882148,0.0000,04/22.2628/2021,2000,g 12.5,2.0
# From MPC119998
C/2019 T3 (ATLAS),e,121.8624,139.5207,112.2769,4074,0.0000038,0.99854027,0.0000,03/02.6779/2021,2000,g  6.8,4.0
# From MPC119998
C/2019 T4 (ATLAS),e,53.6186,199.9551,351.2159,997.5150,0.0000313,0.99574718,0.0000,06/09.3718/2022,2000,g  5.0,4.0
# From MPC119998
P/2019 T5 (ATLAS),e,33.4275,247.6848,189.5927,8.007441,0.0434974,0.80917168,23.8317,01/30.0/2021,2000,g 15.0,4.0
# From MPC119998
P/2019 T6 (PANSTARRS),e,18.6948,71.3014,328.9064,5.434219,0.0778034,0.62249554,34.9504,01/30.0/2021,2000,g 15.5,4.0
# From MPC118096
P/2019 U4 (PANSTARRS),e,11.6917,200.0205,180.9686,3.520509,0.1492093,0.47547808,74.5424,01/30.0/2021,2000,g 19.0,4.0
# From MPC118844
A/2019 U5,h,03/30.1895/2023,113.5250,2.6793,181.5921,1.000859,3.621253,2000,10.0,2.0
# From MPEC 2020-AA5
C/2019 U6,e,60.9997,235.6999,329.6600,418.5479,0.0001151,0.99781570,0.0000,06/18.8153/2020,2000,g 14.5,2.0
# From MPC119998
C/2019 V1 (Borisov),e,61.8624,83.2016,51.1921,1945,0.0000115,0.99840718,0.0000,07/16.5327/2020,2000,g 11.0,4.0
# From MPC119998
P/2019 V2 (Groeller),e,11.8056,189.1607,336.3417,7.512033,0.0478705,0.33219841,4.7520,01/30.0/2021,2000,g 10.0,4.0
# From MPC119998
P/2019 W1 (PANSTARRS),e,23.4610,35.4020,18.7047,4.550309,0.1015413,0.26627142,64.3005,01/30.0/2021,2000,g 12.9,4.0
# From MPC119998
P/2019 X1 (Pruyne),e,10.2447,43.7003,36.5913,6.177262,0.0641963,0.30349786,35.9707,01/30.0/2021,2000,g 10.4,4.0
# From MPC119999
C/2019 Y1 (ATLAS),e,73.2593,31.5189,57.9727,85.94127,0.0012371,0.99032428,0.0000,03/15.5879/2020,2000,g 13.7,4.0
# From MPEC 2020-L06
C/2019 Y4 (ATLAS),e,45.3826,120.5722,177.3120,548.6024,0.0000767,0.99953886,0.0000,05/31.0594/2020,2000,g 11.8,6.0
# From MPEC 2020-L06
C/2019 Y4-A (ATLAS),h,05/31.0425/2020,45.8244,120.9284,177.2545,1.001353,0.251112,2000,11.6,6.0
# From MPEC 2020-L06
C/2019 Y4-B (ATLAS),e,45.4589,120.6243,177.3878,1136,0.0000258,0.99977752,0.0000,05/31.0213/2020,2000,g 12.8,6.0
# From MPEC 2020-L06
C/2019 Y4-C (ATLAS),h,05/31.0007/2020,45.6066,120.6542,177.2879,1.002071,0.252162,2000,12.7,6.0
# From MPEC 2020-L06
C/2019 Y4-D (ATLAS),e,45.6480,121.0347,177.4266,67.43631,0.0017798,0.99626967,0.0000,05/31.1180/2020,2000,g 12.5,6.0
# From MPEC 2020-K19
A/2020 A1,e,149.0350,119.2915,302.5976,24.64807,0.0080543,0.93226916,3.4184,01/30.0/2021,2000,g 18.0,2.0
# From MPEC 2020-L06
C/2020 A2 (Iwamoto),e,120.7462,286.3783,68.2092,1286,0.0000214,0.99923973,0.0000,01/08.3560/2020,2000,g 13.5,4.0
# From MPEC 2020-L06
C/2020 A3 (ATLAS),h,07/29.7046/2019,146.7767,120.3776,271.1697,1.025227,5.839475,2000,8.0,4.0
# From MPEC 2020-L06
C/2020 B3 (Rankin),e,20.7059,185.8284,325.0714,1435,0.0000181,0.99766993,0.0000,10/19.7629/2019,2000,g 13.0,4.0
# From MPEC 2020-L06
C/2020 F2 (ATLAS),h,07/16.5909/2022,163.5765,250.2523,48.3742,1.002924,8.816847,2000,4.5,4.0
# From MPEC 2020-L06
C/2020 F3 (NEOWISE),e,128.9305,61.0130,37.2672,360.2330,0.0001442,0.99918191,0.0000,07/03.6788/2020,2000,g 12.5,3.2
# From MPEC 2020-L06
C/2020 F5 (MASTER),h,03/24.0179/2021,51.7033,350.6209,311.0314,1.002504,4.326709,2000,6.5,3.2
# From MPEC 2020-L06
C/2020 F6 (PANSTARRS),e,174.5819,207.8831,344.6065,387.1998,0.0001294,0.99093205,0.0000,04/11.6398/2020,2000,g 14.5,2.8
# From MPEC 2020-L06
A/2020 F7,e,93.9528,321.8865,227.9846,765.0299,0.0000466,0.99303059,0.0000,11/14.1013/2021,2000,g 12.0,2.0
# From MPEC 2020-KB7
C/2020 F8 (SWAN),e,110.7888,260.0054,68.2176,273.5797,0.0002178,0.99842711,0.0000,05/27.5706/2020,2000,g 10.0,4.0
# From MPEC 2020-L06
P/2020 G1 (Pimentel),e,18.4763,240.0935,207.6623,3.611094,0.1436302,0.85989596,45.7615,01/30.0/2021,2000,g 17.0,4.0
# From MPEC 2020-L06
C/2020 H2 (Pruyne),e,125.0414,277.6378,26.7014,187.6208,0.0003835,0.99555647,0.0000,04/27.5993/2020,2000,g 18.0,4.0
# From MPEC 2020-HM1
C/2020 H3 (Wierzchos),p,06/05.7162/2020,62.5292,30.4456,2.300288,270.6227,2000,13.5,4.0
# From MPEC 2020-L06
C/2020 H4 (Leonard),e,84.5150,307.7369,117.6097,48.18033,0.0029471,0.98075627,0.0000,08/29.5183/2020,2000,g 15.0,3.2
# From MPEC 2020-L06
C/2020 H5 (Robinson),e,70.2535,210.5972,325.0650,1069,0.0000282,0.99123488,0.0000,11/14.8738/2020,2000,g  5.0,4.0
# From MPEC 2020-L06
C/2020 H6 (ATLAS),h,09/30.9649/2021,79.9670,213.6979,20.3157,1.000882,4.704690,2000,8.0,3.2
# From MPEC 2020-KB7
C/2020 H7 (Lemmon),e,135.9235,323.5194,82.6780,1405,0.0000187,0.99685380,0.0000,06/02.9510/2020,2000,g 11.0,4.0
# From MPEC 2020-KB7
C/2020 H8 (PANSTARRS),p,06/06.7207/2020,99.7116,129.2192,4.678446,68.3225,2000,10.5,4.0
# From MPEC 2020-L06
A/2020 H9,e,137.8727,213.1225,312.8898,531.9092,0.0000803,0.99515094,0.0000,12/21.3560/2019,2000,g 18.0,2.0
# From MPEC 2020-L06
C/2020 J1 (SONEAR),e,142.2928,226.5917,341.7263,479.7699,0.0000938,0.99299671,0.0000,04/19.3716/2021,2000,g  8.5,3.2
# From MPEC 2020-L06
C/2020 K1 (PANSTARRS),h,05/08.0796/2023,89.6534,94.3641,213.9159,1.000829,3.074042,2000,5.5,4.0
# From MPEC 2020-KF5
